[Satellite]
VERSION=1.1
NAME=SKYNET 5B
NICKNAME=SKYNET 5B
TLE1=1 32294U 07056B   15053.79603068  .00000114  00000-0  00000+0 0  9996
TLE2=2 32294   0.0636 352.3541 0003811 347.0796 123.7755  1.00272008 26793
